NORAD_CAT_ID,OBJECT_NAME,OBJECT_TYPE,EPOCH,MEAN_MOTION,ECCENTRICITY,INCLINATION,RA_OF_ASC_NODE,ARG_OF_PERICENTER,MEAN_ANOMALY,BSTAR,MEAN_MOTION_DOT,MEAN_MOTION_DDOT,TLE_LINE0,TLE_LINE1,TLE_LINE2,SEMIMAJOR_AXIS,PERIOD,APOGEE,PERIGEE,DECAYED
55395.0,STARLINK-5274,PAYLOAD,2023-12-28 03:18:03,14.98324132,0.0002752,70.0006,287.8556,237.1157,122.9737,-3.0579e-06,-1.29e-06,0.0,0 STARLINK-5274,1 55395U 23014E   23362.13753517 -.00000129  00000-0 -30579-5 0  9998,2 55395  70.0006 287.8556 0002752 237.1157 122.9737 14.98324132 50907,6950.211,96.107,573.989,570.163,0.0
55395.0,STARLINK-5274,PAYLOAD,2023-12-28 04:54:11,14.9831377,0.0002797,70.0,287.6836,273.7331,86.3508,0.00019929,2.285e-05,0.0,0 STARLINK-5274,1 55395U 23014E   23362.20429855  .00002285  00000-0  19929-3 0  9998,2 55395  70.0000 287.6836 0002797 273.7331  86.3508 14.98313770 50915,6950.243,96.108,574.052,570.164,0.0
55395.0,STARLINK-5274,PAYLOAD,2023-12-28 19:19:23,14.98327015,0.0002377,70.0003,286.1654,256.3984,103.691,9.9658e-05,1.096e-05,0.0,0 STARLINK-5274,1 55395U 23014E   23362.80513075  .00001096  00000-0  99658-4 0  9999,2 55395  70.0003 286.1654 0002377 256.3984 103.6910 14.98327015 51003,6950.202,96.107,573.719,570.415,0.0
55395.0,STARLINK-5274,PAYLOAD,2023-12-28 22:31:39,14.98332672,0.000275,69.9995,285.8331,265.3836,94.7009,-1.0482e-05,-2.18e-06,0.0,0 STARLINK-5274,1 55395U 23014E   23362.93865111 -.00000218  00000-0 -10482-4 0  9999,2 55395  69.9995 285.8331 0002750 265.3836  94.7009 14.98332672 51968,6950.185,96.107,573.961,570.138,0.0
55395.0,STARLINK-5274,PAYLOAD,2023-12-29 04:56:11,14.98335198,0.0002687,69.9996,285.1604,263.497,96.5883,1.5027e-05,8.6e-07,0.0,0 STARLINK-5274,1 55395U 23014E   23363.20568827  .00000086  00000-0  15027-4 0  9995,2 55395  69.9996 285.1604 0002687 263.4970  96.5883 14.98335198 52004,6950.177,96.107,573.909,570.174,0.0
55395.0,STARLINK-5274,PAYLOAD,2023-12-29 19:21:24,14.9833071,0.0002869,69.9999,283.6453,268.5121,91.571,1.4969e-05,8.6e-07,0.0,0 STARLINK-5274,1 55395U 23014E   23363.80653095  .00000086  00000-0  14969-4 0  9997,2 55395  69.9999 283.6453 0002869 268.5121  91.5710 14.98330710 51152,6950.191,96.107,574.05,570.062,0.0
55395.0,STARLINK-5274,PAYLOAD,2023-12-29 22:33:40,14.98327523,0.0002842,69.9999,283.3084,265.2891,94.7944,6.6333e-05,6.99e-06,0.0,0 STARLINK-5274,1 55395U 23014E   23363.94005089  .00000699  00000-0  66333-4 0  9998,2 55395  69.9999 283.3084 0002842 265.2891  94.7944 14.98327523 52117,6950.201,96.107,574.041,570.09,0.0
55395.0,STARLINK-5274,PAYLOAD,2023-12-30 04:58:12,14.98331851,0.0002641,69.9998,282.6355,264.1762,95.9096,8.1998e-05,8.86e-06,0.0,0 STARLINK-5274,1 55395U 23014E   23364.20708788  .00000886  00000-0  81998-4 0  9996,2 55395  69.9998 282.6355 0002641 264.1762  95.9096 14.98331851 52155,6950.187,96.107,573.888,570.217,0.0
55395.0,STARLINK-5274,PAYLOAD,2023-12-30 19:23:25,14.98331441,0.0002456,70.0002,281.1191,264.6284,95.4595,-2.9997e-07,-9.6e-07,0.0,0 STARLINK-5274,1 55395U 23014E   23364.80792950 -.00000096  00000-0 -29997-6 0  9994,2 55395  70.0002 281.1191 0002456 264.6284  95.4595 14.98331441 51304,6950.188,96.107,573.76,570.346,0.0
55395.0,STARLINK-5274,PAYLOAD,2023-12-30 22:35:41,14.98328215,0.0002578,69.9998,280.7826,261.9661,98.1205,-4.7866e-05,-6.64e-06,0.0,0 STARLINK-5274,1 55395U 23014E   23364.94145234 -.00000664  00000-0 -47866-4 0  9990,2 55395  69.9998 280.7826 0002578 261.9661  98.1205 14.98328215 52268,6950.198,96.107,573.855,570.272,0.0
55395.0,STARLINK-5274,PAYLOAD,2023-12-31 19:25:26,14.98329138,0.0002677,69.9996,278.5941,263.8731,96.2123,1.6558e-05,1.05e-06,0.0,0 STARLINK-5274,1 55395U 23014E   23365.80932916  .00000105  00000-0  16558-4 0  9999,2 55395  69.9996 278.5941 0002677 263.8731  96.2123 14.98329138 51451,6950.196,96.107,573.921,570.2,0.0
55395.0,STARLINK-5274,PAYLOAD,2023-12-31 22:37:42,14.98331337,0.0002697,69.9995,278.2576,265.6221,94.463,-2.2966e-05,-3.67e-06,0.0,0 STARLINK-5274,1 55395U 23014E   23365.94284904 -.00000367  00000-0 -22966-4 0  9993,2 55395  69.9995 278.2576 0002697 265.6221  94.4630 14.98331337 52411,6950.189,96.107,573.928,570.179,0.0
55395.0,STARLINK-5274,PAYLOAD,2024-01-01 03:26:06,14.98328606,0.0002655,69.9996,277.7525,263.3825,96.7032,7.5666e-05,8.1e-06,0.0,0 STARLINK-5274,1 55395U 23014E   24001.14312789  .00000810  00000-0  75666-4 0  9992,2 55395  69.9996 277.7525 0002655 263.3825  96.7032 14.98328606 52448,6950.197,96.107,573.907,570.217,0.0
55395.0,STARLINK-5274,PAYLOAD,2024-01-01 19:27:26,14.98327566,0.0002737,69.9999,276.0696,267.0929,92.9917,5.4029e-05,5.52e-06,0.0,0 STARLINK-5274,1 55395U 23014E   24001.81072768  .00000552  00000-0  54029-4 0  9999,2 55395  69.9999 276.0696 0002737 267.0929  92.9917 14.98327566 51600,6950.2,96.107,573.968,570.163,0.0
55395.0,STARLINK-5274,PAYLOAD,2024-01-01 22:39:42,14.98330308,0.0002867,69.9995,275.7326,269.0246,91.0584,3.0553e-05,2.72e-06,0.0,0 STARLINK-5274,1 55395U 23014E   24001.94424648  .00000272  00000-0  30553-4 0  9996,2 55395  69.9995 275.7326 0002867 269.0246  91.0584 14.98330308 52564,6950.192,96.107,574.05,570.064,0.0
55395.0,STARLINK-5274,PAYLOAD,2024-01-02 03:28:06,14.98334448,0.0002515,69.9997,275.2275,277.7605,82.3268,0.00011952,1.334e-05,0.0,0 STARLINK-5274,1 55395U 23014E   24002.14452316  .00001334  00000-0  11952-3 0  9993,2 55395  69.9997 275.2275 0002515 277.7605  82.3268 14.98334448 51659,6950.179,96.107,573.792,570.296,0.0
55395.0,STARLINK-5274,PAYLOAD,2024-01-02 19:29:27,14.98329845,0.000299,69.9987,273.5435,271.642,88.4397,-1.924e-05,-3.23e-06,0.0,0 STARLINK-5274,1 55395U 23014E   24002.81212738 -.00000323  00000-0 -19240-4 0  9997,2 55395  69.9987 273.5435 0002990 271.6420  88.4397 14.98329845 51758,6950.193,96.107,574.136,569.98,0.0
55395.0,STARLINK-5274,PAYLOAD,2024-01-02 22:41:43,14.98329713,0.0002988,69.9985,273.2069,271.7241,88.3576,-1.1922e-05,-2.35e-06,0.0,0 STARLINK-5274,1 55395U 23014E   24002.94564715 -.00000235  00000-0 -11922-4 0  9997,2 55395  69.9985 273.2069 0002988 271.7241  88.3576 14.98329713 52714,6950.194,96.107,574.135,569.982,0.0
55395.0,STARLINK-5274,PAYLOAD,2024-01-03 03:30:07,14.98333464,0.0002225,70.0003,272.7038,287.0994,72.9921,6.5659e-05,6.91e-06,0.0,0 STARLINK-5274,1 55395U 23014E   24003.14592498  .00000691  00000-0  65659-4 0  9999,2 55395  70.0003 272.7038 0002225 287.0994  72.9921 14.98333464 52741,6950.182,96.107,573.594,570.501,0.0
55395.0,STARLINK-5274,PAYLOAD,2024-01-03 19:31:28,14.98327833,0.0002816,70.0009,271.0235,273.0226,87.061,-1.1437e-05,-2.29e-06,0.0,0 STARLINK-5274,1 55395U 23014E   24003.81352700 -.00000229  00000-0 -11437-4 0  9997,2 55395  70.0009 271.0235 0002816 273.0226  87.0610 14.98327833 51909,6950.2,96.107,574.022,570.107,0.0
55395.0,STARLINK-5274,PAYLOAD,2024-01-03 22:43:44,14.9832749,0.0002563,70.0003,270.6856,257.2151,102.8721,-2.6456e-05,-4.09e-06,0.0,0 STARLINK-5274,1 55395U 23014E   24003.94704687 -.00000409  00000-0 -26456-4 0  9993,2 55395  70.0003 270.6856 0002563 257.2151 102.8721 14.98327490 52861,6950.201,96.107,573.847,570.284,0.0
55395.0,STARLINK-5274,PAYLOAD,2024-01-04 03:32:09,14.9832816,0.000263,69.9998,270.1787,273.1516,86.9343,-2.1786e-05,-3.53e-06,0.0,0 STARLINK-5274,1 55395U 23014E   24004.14732762 -.00000353  00000-0 -21786-4 0  9990,2 55395  69.9998 270.1787 0002630 273.1516  86.9343 14.98328160 52896,6950.199,96.107,573.891,570.236,0.0
55395.0,STARLINK-5274,PAYLOAD,2024-01-04 21:09:37,14.98324369,0.0002721,69.9992,268.3255,270.1338,89.9509,9.198e-06,1.7e-07,0.0,0 STARLINK-5274,1 55395U 23014E   24004.88168979  .00000017  00000-0  91980-5 0  9993,2 55395  69.9992 268.3255 0002721 270.1338  89.9509 14.98324369 52062,6950.21,96.107,573.966,570.184,0.0
55395.0,STARLINK-5274,PAYLOAD,2024-01-05 03:34:10,14.98328444,0.0002483,69.9992,267.6532,273.2471,86.8404,1.9467e-05,1.39e-06,0.0,0 STARLINK-5274,1 55395U 23014E   24005.14872844  .00000139  00000-0  19467-4 0  9990,2 55395  69.9992 267.6532 0002483 273.2471  86.8404 14.98328444 53046,6950.198,96.107,573.788,570.337,0.0
55395.0,STARLINK-5274,PAYLOAD,2024-01-05 19:35:30,14.9833045,0.0002883,69.9986,265.9687,274.8189,85.264,6.5039e-05,6.83e-06,0.0,0 STARLINK-5274,1 55395U 23014E   24005.81632431  .00000683  00000-0  65039-4 0  9990,2 55395  69.9986 265.9687 0002883 274.8189  85.2640 14.98330450 52200,6950.191,96.107,574.06,570.053,0.0
55395.0,STARLINK-5274,PAYLOAD,2024-01-05 21:11:38,14.98330062,0.0002749,69.9986,265.8003,270.0726,90.0118,5.7202e-05,5.9e-06,0.0,0 STARLINK-5274,1 55395U 23014E   24005.88308458  .00000590  00000-0  57202-4 0  9996,2 55395  69.9986 265.8003 0002749 270.0726  90.0118 14.98330062 53155,6950.193,96.107,573.968,570.147,0.0
55395.0,STARLINK-5274,PAYLOAD,2024-01-06 03:36:10,14.9833373,0.000276,69.9984,265.1278,265.5418,94.5425,8.5251e-05,9.24e-06,0.0,0 STARLINK-5274,1 55395U 23014E   24006.15012073  .00000924  00000-0  85251-4 0  9998,2 55395  69.9984 265.1278 0002760 265.5418  94.5425 14.98333730 53199,6950.181,96.107,573.965,570.128,0.0
55395.0,STARLINK-5274,PAYLOAD,2024-01-06 19:37:31,14.98328276,0.0002456,69.999,263.4451,254.1098,105.9791,3.8926e-05,3.72e-06,0.0,0 STARLINK-5274,1 55395U 23014E   24006.81772474  .00000372  00000-0  38926-4 0  9993,2 55395  69.9990 263.4451 0002456 254.1098 105.9791 14.98328276 52359,6950.198,96.107,573.77,570.356,0.0
55395.0,STARLINK-5274,PAYLOAD,2024-01-06 21:13:39,14.98328194,0.0002458,69.999,263.2768,254.0112,106.0777,3.8318e-05,3.64e-06,0.0,0 STARLINK-5274,1 55395U 23014E   24006.88448480  .00000364  00000-0  38318-4 0  9993,2 55395  69.9990 263.2768 0002458 254.0112 106.0777 14.98328194 53307,6950.198,96.107,573.772,570.355,0.0
55395.0,STARLINK-5274,PAYLOAD,2024-01-07 02:02:03,14.98327793,0.0002496,69.999,262.772,254.6031,105.4852,2.8484e-05,2.47e-06,0.0,0 STARLINK-5274,1 55395U 23014E   24007.08476550  .00000247  00000-0  28484-4 0  9998,2 55395  69.9990 262.7720 0002496 254.6031 105.4852 14.98327793 53331,6950.2,96.107,573.799,570.33,0.0
